{
  "links" : {
    "next" : "https://api.nasa.gov/neo/rest/v1/feed?start_date=1996-04-23&end_date=1996-04-23&detailed=true&api_key=t0TVs3DtDT2H8Oy2Zy8m2eVrNsAVKAexjcZXUckd",
    "prev" : "https://api.nasa.gov/neo/rest/v1/feed?start_date=1996-04-21&end_date=1996-04-21&detailed=true&api_key=t0TVs3DtDT2H8Oy2Zy8m2eVrNsAVKAexjcZXUckd",
    "self" : "https://api.nasa.gov/neo/rest/v1/feed?start_date=1996-04-22&end_date=1996-04-22&detailed=true&api_key=t0TVs3DtDT2H8Oy2Zy8m2eVrNsAVKAexjcZXUckd"
  },
  "element_count" : 2,
  "near_earth_objects" : {
    "1996-04-22" : [ {
      "links" : {
        "self" : "https://api.nasa.gov/neo/rest/v1/neo/2280491?api_key=t0TVs3DtDT2H8Oy2Zy8m2eVrNsAVKAexjcZXUckd"
      },
      "neo_reference_id" : "2280491",
      "name" : "280491 (2004 MO7)",
      "nasa_jpl_url" : "http://ssd.jpl.nasa.gov/sbdb.cgi?sstr=2280491",
      "absolute_magnitude_h" : 19.0,
      "estimated_diameter" : {
        "kilometers" : {
          "estimated_diameter_min" : 0.4212646106,
          "estimated_diameter_max" : 0.9419763057
        },
        "meters" : {
          "estimated_diameter_min" : 421.2646105562,
          "estimated_diameter_max" : 941.9763057186
        },
        "miles" : {
          "estimated_diameter_min" : 0.2617616123,
          "estimated_diameter_max" : 0.5853167591
        },
        "feet" : {
          "estimated_diameter_min" : 1382.1017848971,
          "estimated_diameter_max" : 3090.4735428537
        }
      },
      "is_potentially_hazardous_asteroid" : false,
      "close_approach_data" : [ {
        "close_approach_date" : "1996-04-22",
        "epoch_date_close_approach" : 830156400000,
        "relative_velocity" : {
          "kilometers_per_second" : "17.8058811314",
          "kilometers_per_hour" : "64101.1720729795",
          "miles_per_hour" : "39829.9755027911"
        },
        "miss_distance" : {
          "astronomical" : "0.0637604543",
          "lunar" : "24.802816391",
          "kilometers" : "9538428",
          "miles" : "5926904.5"
        },
        "orbiting_body" : "Earth"
      } ],
      "orbital_data" : {
        "orbit_id" : "16",
        "orbit_determination_date" : "2017-04-06 09:24:20",
        "orbit_uncertainty" : "0",
        "minimum_orbit_intersection" : ".0559407",
        "jupiter_tisserand_invariant" : "5.447",
        "epoch_osculation" : "2458000.5",
        "eccentricity" : ".4838712927282194",
        "semi_major_axis" : "1.104669193158265",
        "inclination" : "24.08299122770474",
        "ascending_node_longitude" : "38.55459099551003",
        "orbital_period" : "424.0790231426155",
        "perihelion_distance" : ".5701514826277361",
        "perihelion_argument" : "61.3759260364418",
        "aphelion_distance" : "1.639186903688793",
        "perihelion_time" : "2458191.094749434314",
        "mean_anomaly" : "198.2044240531124",
        "mean_motion" : ".8488983900506061",
        "equinox" : "J2000"
      }
    }, {
      "links" : {
        "self" : "https://api.nasa.gov/neo/rest/v1/neo/3714452?api_key=t0TVs3DtDT2H8Oy2Zy8m2eVrNsAVKAexjcZXUckd"
      },
      "neo_reference_id" : "3714452",
      "name" : "(2015 FQ117)",
      "nasa_jpl_url" : "http://ssd.jpl.nasa.gov/sbdb.cgi?sstr=3714452",
      "absolute_magnitude_h" : 20.6,
      "estimated_diameter" : {
        "kilometers" : {
          "estimated_diameter_min" : 0.2016299194,
          "estimated_diameter_max" : 0.4508582062
        },
        "meters" : {
          "estimated_diameter_min" : 201.6299194428,
          "estimated_diameter_max" : 450.8582061718
        },
        "miles" : {
          "estimated_diameter_min" : 0.1252869847,
          "estimated_diameter_max" : 0.2801502144
        },
        "feet" : {
          "estimated_diameter_min" : 661.5155049046,
          "estimated_diameter_max" : 1479.1936371367
        }
      },
      "is_potentially_hazardous_asteroid" : true,
      "close_approach_data" : [ {
        "close_approach_date" : "1996-04-22",
        "epoch_date_close_approach" : 830156400000,
        "relative_velocity" : {
          "kilometers_per_second" : "23.7677487531",
          "kilometers_per_hour" : "85563.8955112723",
          "miles_per_hour" : "53166.0771858792"
        },
        "miss_distance" : {
          "astronomical" : "0.1788118225",
          "lunar" : "69.557800293",
          "kilometers" : "26749868",
          "miles" : "16621597"
        },
        "orbiting_body" : "Earth"
      } ],
      "orbital_data" : {
        "orbit_id" : "17",
        "orbit_determination_date" : "2017-04-06 08:34:48",
        "orbit_uncertainty" : "3",
        "minimum_orbit_intersection" : ".0281473",
        "jupiter_tisserand_invariant" : "6.681",
        "epoch_osculation" : "2458000.5",
        "eccentricity" : ".6205252129223062",
        "semi_major_axis" : ".8607400158750946",
        "inclination" : "4.559941010630234",
        "ascending_node_longitude" : "293.9197687415524",
        "orbital_period" : "291.6798430372066",
        "perihelion_distance" : ".3266291342534523",
        "perihelion_argument" : "63.07430147068387",
        "aphelion_distance" : "1.394850897496737",
        "perihelion_time" : "2458122.996557712335",
        "mean_anomaly" : "208.8110788964757",
        "mean_motion" : "1.234229956555752",
        "equinox" : "J2000"
      }
    } ]
  }
}